{
  "type": "FeatureCollection",
  "features": [
    {
      "type": "Feature",
      "properties": {
        "norad_id": 30546,
        "name": "FENGYUN 1C DEB",
        "group": "fengyun-1c-debris",
        "lat": -58.61394211706564,
        "lon": -142.90400017858983,
        "alt_km": 660.3057521674418,
        "timestamp": "2025-12-12T05:47:29.048058+00:00",
        "meta_object_name": "FENGYUN 1C DEB",
        "meta_object_id": "1999-025AKL",
        "meta_epoch": "2025-12-11T20:40:28.081632",
        "meta_mean_motion": 14.87134272,
        "meta_eccentricity": 0.00925098,
        "meta_inclination": 98.908,
        "meta_ra_of_asc_node": 201.7725,
        "meta_arg_of_pericenter": 165.3049,
        "meta_mean_anomaly": 261.7313,
        "meta_ephemeris_type": 0,
        "meta_classification_type": "U",
        "meta_norad_cat_id": 30546,
        "meta_element_set_no": 999,
        "meta_rev_at_epoch": 444,
        "meta_bstar": 0.0013204472,
        "meta_mean_motion_dot": 0.00012779,
        "meta_mean_motion_ddot": 0,
        "tle_line1": "1 30546U 99025AKL 25345.86143613  .00012779  00000+0  13204-2 0  9991",
        "tle_line2": "2 30546  98.9080 201.7725 0092509 165.3049 261.7313 14.87134272  4445"
      },
      "geometry": {
        "type": "Point",
        "coordinates": [
          -142.90400017858983,
          -58.61394211706564
        ]
      }
    },
    {
      "type": "Feature",
      "properties": {
        "norad_id": 30547,
        "name": "FENGYUN 1C DEB",
        "group": "fengyun-1c-debris",
        "lat": 75.83831741431806,
        "lon": 47.6218414651009,
        "alt_km": 790.0135104646333,
        "timestamp": "2025-12-12T05:47:29.048068+00:00",
        "meta_object_name": "FENGYUN 1C DEB",
        "meta_object_id": "1999-025AKM",
        "meta_epoch": "2025-12-12T01:01:16.524768",
        "meta_mean_motion": 14.37748742,
        "meta_eccentricity": 0.00951464,
        "meta_inclination": 98.9022,
        "meta_ra_of_asc_node": 189.0149,
        "meta_arg_of_pericenter": 219.4994,
        "meta_mean_anomaly": 294.3464,
        "meta_ephemeris_type": 0,
        "meta_classification_type": "U",
        "meta_norad_cat_id": 30547,
        "meta_element_set_no": 999,
        "meta_rev_at_epoch": 98712,
        "meta_bstar": 0.0004358706,
        "meta_mean_motion_dot": 1.333e-05,
        "meta_mean_motion_ddot": 0,
        "tle_line1": "1 30547U 99025AKM 25346.04255237  .00001333  00000+0  43587-3 0  9991",
        "tle_line2": "2 30547  98.9022 189.0149 0095146 219.4994 294.3464 14.37748742987122"
      },
      "geometry": {
        "type": "Point",
        "coordinates": [
          47.6218414651009,
          75.83831741431806
        ]
      }
    },
    {
      "type": "Feature",
      "properties": {
        "norad_id": 30548,
        "name": "FENGYUN 1C DEB",
        "group": "fengyun-1c-debris",
        "lat": 16.9406317840363,
        "lon": -119.32987132458243,
        "alt_km": 764.9505521069032,
        "timestamp": "2025-12-12T05:47:29.048079+00:00",
        "meta_object_name": "FENGYUN 1C DEB",
        "meta_object_id": "1999-025AKN",
        "meta_epoch": "2025-12-10T12:13:24.269952",
        "meta_mean_motion": 14.26844945,
        "meta_eccentricity": 0.00687565,
        "meta_inclination": 99.6812,
        "meta_ra_of_asc_node": 241.7363,
        "meta_arg_of_pericenter": 341.7334,
        "meta_mean_anomaly": 143.2043,
        "meta_ephemeris_type": 0,
        "meta_classification_type": "U",
        "meta_norad_cat_id": 30548,
        "meta_element_set_no": 999,
        "meta_rev_at_epoch": 14063,
        "meta_bstar": 0.003249128,
        "meta_mean_motion_dot": 8.037e-05,
        "meta_mean_motion_ddot": 0,
        "tle_line1": "1 30548U 99025AKN 25344.50930868  .00008037  00000+0  32491-2 0  9990",
        "tle_line2": "2 30548  99.6812 241.7363 0068756 341.7334 143.2043 14.26844945140638"
      },
      "geometry": {
        "type": "Point",
        "coordinates": [
          -119.32987132458243,
          16.9406317840363
        ]
      }
    },
    {
      "type": "Feature",
      "properties": {
        "norad_id": 30549,
        "name": "FENGYUN 1C DEB",
        "group": "fengyun-1c-debris",
        "lat": -74.19394508271904,
        "lon": -105.08701443805037,
        "alt_km": 696.1474817665458,
        "timestamp": "2025-12-12T05:47:29.048089+00:00",
        "meta_object_name": "FENGYUN 1C DEB",
        "meta_object_id": "1999-025AKP",
        "meta_epoch": "2025-12-03T07:39:14.923872",
        "meta_mean_motion": 13.98584639,
        "meta_eccentricity": 0.0288262,
        "meta_inclination": 98.4796,
        "meta_ra_of_asc_node": 98.4482,
        "meta_arg_of_pericenter": 283.4344,
        "meta_mean_anomaly": 73.4847,
        "meta_ephemeris_type": 0,
        "meta_classification_type": "U",
        "meta_norad_cat_id": 30549,
        "meta_element_set_no": 999,
        "meta_rev_at_epoch": 95162,
        "meta_bstar": 0.0024216,
        "meta_mean_motion_dot": 4.917e-05,
        "meta_mean_motion_ddot": 0,
        "tle_line1": "1 30549U 99025AKP 25337.31892273  .00004917  00000+0  24216-2 0  9998",
        "tle_line2": "2 30549  98.4796  98.4482 0288262 283.4344  73.4847 13.98584639951629"
      },
      "geometry": {
        "type": "Point",
        "coordinates": [
          -105.08701443805037,
          -74.19394508271904
        ]
      }
    },
    {
      "type": "Feature",
      "properties": {
        "norad_id": 30550,
        "name": "FENGYUN 1C DEB",
        "group": "fengyun-1c-debris",
        "lat": 50.27681873107833,
        "lon": -129.52339056494353,
        "alt_km": 916.8998657942157,
        "timestamp": "2025-12-12T05:47:29.048100+00:00",
        "meta_object_name": "FENGYUN 1C DEB",
        "meta_object_id": "1999-025AKQ",
        "meta_epoch": "2025-12-09T11:38:59.399808",
        "meta_mean_motion": 14.02348674,
        "meta_eccentricity": 0.01331679,
        "meta_inclination": 99.0528,
        "meta_ra_of_asc_node": 238.8009,
        "meta_arg_of_pericenter": 306.2736,
        "meta_mean_anomaly": 237.9374,
        "meta_ephemeris_type": 0,
        "meta_classification_type": "U",
        "meta_norad_cat_id": 30550,
        "meta_element_set_no": 999,
        "meta_rev_at_epoch": 95349,
        "meta_bstar": 0.0044165795,
        "meta_mean_motion_dot": 7.287e-05,
        "meta_mean_motion_ddot": 0,
        "tle_line1": "1 30550U 99025AKQ 25343.48540972  .00007287  00000+0  44166-2 0  9990",
        "tle_line2": "2 30550  99.0528 238.8009 0133167 306.2736 237.9374 14.02348674953490"
      },
      "geometry": {
        "type": "Point",
        "coordinates": [
          -129.52339056494353,
          50.27681873107833
        ]
      }
    },
    {
      "type": "Feature",
      "properties": {
        "norad_id": 30552,
        "name": "FENGYUN 1C DEB",
        "group": "fengyun-1c-debris",
        "lat": -34.35813799176548,
        "lon": 123.98366367672031,
        "alt_km": 713.2355979286685,
        "timestamp": "2025-12-12T05:47:29.048110+00:00",
        "meta_object_name": "FENGYUN 1C DEB",
        "meta_object_id": "1999-025AKS",
        "meta_epoch": "2025-12-11T20:02:48.340608",
        "meta_mean_motion": 14.54732667,
        "meta_eccentricity": 0.00146365,
        "meta_inclination": 98.8347,
        "meta_ra_of_asc_node": 117.4513,
        "meta_arg_of_pericenter": 254.045,
        "meta_mean_anomaly": 105.9133,
        "meta_ephemeris_type": 0,
        "meta_classification_type": "U",
        "meta_norad_cat_id": 30552,
        "meta_element_set_no": 999,
        "meta_rev_at_epoch": 97639,
        "meta_bstar": 0.004336693,
        "meta_mean_motion_dot": 0.00018594,
        "meta_mean_motion_ddot": 0,
        "tle_line1": "1 30552U 99025AKS 25345.83528172  .00018594  00000+0  43367-2 0  9996",
        "tle_line2": "2 30552  98.8347 117.4513 0014636 254.0450 105.9133 14.54732667976399"
      },
      "geometry": {
        "type": "Point",
        "coordinates": [
          123.98366367672031,
          -34.35813799176548
        ]
      }
    },
    {
      "type": "Feature",
      "properties": {
        "norad_id": 30553,
        "name": "FENGYUN 1C DEB",
        "group": "fengyun-1c-debris",
        "lat": -9.855330001637347,
        "lon": 82.67146020840127,
        "alt_km": 672.0224046345811,
        "timestamp": "2025-12-12T05:47:29.048120+00:00",
        "meta_object_name": "FENGYUN 1C DEB",
        "meta_object_id": "1999-025AKT",
        "meta_epoch": "2025-12-11T16:47:15.687168",
        "meta_mean_motion": 14.72208548,
        "meta_eccentricity": 0.00208197,
        "meta_inclination": 99.1281,
        "meta_ra_of_asc_node": 80.4632,
        "meta_arg_of_pericenter": 154.1762,
        "meta_mean_anomaly": 206.0486,
        "meta_ephemeris_type": 0,
        "meta_classification_type": "U",
        "meta_norad_cat_id": 30553,
        "meta_element_set_no": 999,
        "meta_rev_at_epoch": 98458,
        "meta_bstar": 0.0052543861,
        "meta_mean_motion_dot": 0.00033349,
        "meta_mean_motion_ddot": 0,
        "tle_line1": "1 30553U 99025AKT 25345.69948712  .00033349  00000+0  52544-2 0  9999",
        "tle_line2": "2 30553  99.1281  80.4632 0020819 154.1762 206.0486 14.72208548984588"
      },
      "geometry": {
        "type": "Point",
        "coordinates": [
          82.67146020840127,
          -9.855330001637347
        ]
      }
    }
  ]
}